{
    "links": {
        "self": "http://www.neowsapp.com/rest/v1/neo/3719724?api_key=iIulBulltgU6a56xZRHN4H3l9WmuAYTsLGpBGhQ2"
    },
    "id": "3719724",
    "neo_reference_id": "3719724",
    "name": "(2015 KW56)",
    "designation": "2015 KW56",
    "nasa_jpl_url": "http://ssd.jpl.nasa.gov/sbdb.cgi?sstr=3719724",
    "absolute_magnitude_h": 24.4,
    "estimated_diameter": {
        "kilometers": {
            "estimated_diameter_min": 0.0350392641,
            "estimated_diameter_max": 0.0783501764
        },
        "meters": {
            "estimated_diameter_min": 35.0392641108,
            "estimated_diameter_max": 78.3501764334
        },
        "miles": {
            "estimated_diameter_min": 0.0217723826,
            "estimated_diameter_max": 0.0486845275
        },
        "feet": {
            "estimated_diameter_min": 114.9582192654,
            "estimated_diameter_max": 257.0543928497
        }
    },
    "is_potentially_hazardous_asteroid": false,
    "close_approach_data": [
        {
            "close_approach_date": "2015-06-19",
            "close_approach_date_full": "2015-Jun-19 20:39",
            "epoch_date_close_approach": 1434746340000,
            "relative_velocity": {
                "kilometers_per_second": "4.4813290908",
                "kilometers_per_hour": "16132.7847268794",
                "miles_per_hour": "10024.2850432102"
            },
            "miss_distance": {
                "astronomical": "0.1318832746",
                "lunar": "51.3025938194",
                "kilometers": "19729456.968785102",
                "miles": "12259316.0883623276"
            },
            "orbiting_body": "Earth"
        }
    ],
    "orbital_data": {
        "orbit_id": "3",
        "orbit_determination_date": "2017-04-06 08:33:37",
        "first_observation_date": "2015-05-20",
        "last_observation_date": "2015-05-22",
        "data_arc_in_days": 2,
        "observations_used": 13,
        "orbit_uncertainty": "9",
        "minimum_orbit_intersection": ".131112",
        "jupiter_tisserand_invariant": "3.649",
        "epoch_osculation": "2457163.5",
        "eccentricity": ".4446854266486874",
        "semi_major_axis": "2.062193930284526",
        "inclination": "3.109329801854489",
        "ascending_node_longitude": "65.45972173056016",
        "orbital_period": "1081.664765894338",
        "perihelion_distance": "1.145166342563618",
        "perihelion_argument": "204.4428543127387",
        "aphelion_distance": "2.979221518005434",
        "perihelion_time": "2457194.491526633766",
        "mean_anomaly": "349.6853905757658",
        "mean_motion": ".3328203075028946",
        "equinox": "J2000",
        "orbit_class": {
            "orbit_class_type": "AMO",
            "orbit_class_description": "Near-Earth asteroid orbits similar to that of 1221 Amor",
            "orbit_class_range": "1.017 AU < q (perihelion) < 1.3 AU"
        }
    },
    "is_sentry_object": false
}